[{"OBJECT_NAME":"STARLINK-6059","OBJECT_ID":"2023-078AZ","EPOCH":"2026-03-09T21:24:17.066016","MEAN_MOTION":14.98328614,"ECCENTRICITY":0.00026337,"INCLINATION":70.0011,"RA_OF_ASC_NODE":343.8217,"ARG_OF_PERICENTER":264.6328,"MEAN_ANOMALY":95.453,"EPHEMERIS_TYPE":0,"CLASSIFICATION_TYPE":"U","NORAD_CAT_ID":56814,"ELEMENT_SET_NO":999,"REV_AT_EPOCH":15271,"BSTAR":2.4703435e-5,"MEAN_MOTION_DOT":2.02e-6,"MEAN_MOTION_DDOT":0},{"OBJECT_NAME":"DOVE 3","OBJECT_ID":"2013-066P","EPOCH":"2026-03-09T13:43:10.410528","MEAN_MOTION":14.75674186,"ECCENTRICITY":0.0114756,"INCLINATION":97.6762,"RA_OF_ASC_NODE":293.4727,"ARG_OF_PERICENTER":348.5904,"MEAN_ANOMALY":11.2708,"EPHEMERIS_TYPE":0,"CLASSIFICATION_TYPE":"U","NORAD_CAT_ID":39429,"ELEMENT_SET_NO":999,"REV_AT_EPOCH":65631,"BSTAR":0.00054674,"MEAN_MOTION_DOT":4.106e-5,"MEAN_MOTION_DDOT":0}]
